ELYSIUM STAR 2 & LFF    
1 43760U 18099C   24298.55676544  .00258146  00000+0  39269-2 0  9990
2 43760  97.4938   8.6707 0004535 193.0969 167.0167 15.53610903323092
